IRIDIUM 171             
1 43929U 19002H   26009.22864629 -.00000021  00000+0 -14510-4 0  9994
2 43929  86.3944  60.3096 0002234  89.7817 270.3635 14.34217280366179
IRIDIUM 170             
1 43930U 19002J   26009.18871412  .00000800  00000+0  12302-3 0  9998
2 43930  86.6063  60.0323 0002380  88.3471 271.8018 14.72252112375861
IRIDIUM 167             
1 43931U 19002K   26009.22230380  .00000123  00000+0  36912-4 0  9999
2 43931  86.3940  60.0449 0002583  89.6544 270.4948 14.34217821366179
IRIDIUM 181             
1 56726U 23068S   26009.27281107  .00000613  00000+0  17621-3 0  9999
2 56726  86.4531 123.2301 0001753  88.2291 271.9111 14.43307334139516
IRIDIUM 177             
1 56727U 23068T   26009.05318933  .00000940  00000+0  12021-3 0  9996
2 56727  86.1934  44.3527 0002201  85.9286 274.2186 14.80217196142824
IRIDIUM 174             
1 56728U 23068U   26008.83650744  .00000881  00000+0  13577-3 0  9992
2 56728  86.6079  60.3122 0002511  97.8044 262.3458 14.72245332142573
IRIDIUM 178             
1 56729U 23068V   26009.24515253  .00001557  00000+0  20147-3 0  9996
2 56729  86.6531  91.8078 0002477  84.0883 276.0621 14.80223455142852
IRIDIUM 179             
1 56730U 23068W   26009.30733069  .00000309  00000+0  37150-4 0  9999
2 56730  86.6782 100.2901 0002295  89.8410 270.3074 14.80232890142862
